1 45658U 20035B   22365.02553979  .00009403  00000-0  64904-3 0  9998
2 45658  53.0550 255.0019 0001636  58.3149 301.7999 15.06414644142781
1 45658U 20035B   22365.42361614  .00008221  00000-0  56986-3 0  9993
2 45658  53.0547 253.2148 0001630  57.6149 302.4997 15.06417480143256
1 45658U 20035B   22365.75535269  .00005955  00000-0  41821-3 0  9991
2 45658  53.0557 251.7261 0001383  55.6836 304.4284 15.06408586143306
1 45658U 20035B   23001.15343211  .00001203  00000-0  99657-4 0  9990
2 45658  53.0544 249.9375 0001372  59.5357 300.5767 15.06406803143365
1 45658U 20035B   23001.94960589 -.00005214  00000-0 -33151-3 0  9994
2 45658  53.0549 246.3646 0001546  59.0840 301.0301 15.06387032143482
1 45658U 20035B   23002.01595238 -.00005821  00000-0 -37232-3 0  9996
2 45658  53.0538 246.0656 0001578  59.1914 300.9230 15.06388264143089
1 45658U 20035B   23002.14865243 -.00003763  00000-0 -23391-3 0  9990
2 45658  53.0547 245.4704 0001602  59.4205 300.6942 15.06394799143515
1 45658U 20035B   23002.94481346 -.00000636  00000-0 -23828-4 0  9998
2 45658  53.0549 241.8966 0001594  60.0451 300.0696 15.06391919143632
1 45658U 20035B   23003.07750739  .00000374  00000-0  43996-4 0  9993
2 45658  53.0548 241.3006 0001681  62.9331 297.1830 15.06390700143246
1 45658U 20035B   23003.34289397  .00001601  00000-0  12637-3 0  9991
2 45658  53.0548 240.1094 0001612  61.0542 299.0608 15.06392897143690
1 45658U 20035B   23004.07270796  .00004421  00000-0  31551-3 0  9994
2 45658  53.0547 236.8332 0001729  65.4344 294.6825 15.06396254143393
1 45658U 20035B   23004.33809191  .00005382  00000-0  37990-3 0  9990
2 45658  53.0548 235.6419 0001739  66.0174 294.0997 15.06405073143840
1 45658U 20035B   23005.59865321  .00008206  00000-0  56852-3 0  9992
2 45658  53.0543 229.9828 0001166  68.4526 291.6587 15.06442741143623
1 45658U 20035B   23005.73135361  .00003428  00000-0  24875-3 0  9993
2 45658  53.0557 229.3816 0000802  49.5917 310.5142 15.06424084144055
1 45658U 20035B   23005.73135361  .00003428  00000-0  24875-3 0  9993
2 45658  53.0557 229.3816 0000802  49.5917 310.5142 15.06424084143649
1 45658U 20035B   23006.39482962 -.00003357  00000-0 -20654-3 0  9992
2 45658  53.0540 226.4099 0001371  64.5954 295.5177 15.06400937143744
1 45658U 20035B   23006.72656172 -.00000926  00000-0 -43274-4 0  9998
2 45658  53.0535 224.9196 0001450  69.1596 290.9548 15.06403747144205
1 45658U 20035B   23007.45637825 -.00001158  00000-0 -58833-4 0  9998
2 45658  53.0531 221.6430 0001350  68.0836 292.0297 15.06399388143905
1 45658U 20035B   23007.85445744 -.00004306  00000-0 -27036-3 0  9997
2 45658  53.0528 219.8563 0001407  71.0590 289.0552 15.06400975144378
1 45658U 20035B   23008.51793069  .00002786  00000-0  20591-3 0  9994
2 45658  53.0541 216.8771 0001264  71.2197 288.8929 15.06390986144473
1 45658U 20035B   23008.71697179  .00001062  00000-0  90172-4 0  9990
2 45658  53.0542 215.9838 0001342  70.8136 289.2998 15.06394953144506
1 45658U 20035B   23008.71697179  .00001062  00000-0  90172-4 0  9990
2 45658  53.0542 215.9838 0001342  70.8136 289.2998 15.06394953144090
1 45658U 20035B   23008.98237237 -.00000659  00000-0 -25340-4 0  9992
2 45658  53.0542 214.7922 0001814  61.2747 298.8424 15.06384071144132
1 45658U 20035B   23009.38046507 -.00001218  00000-0 -62896-4 0  9994
2 45658  53.0526 213.0018 0001703  94.9930 265.1253 15.06371986144606
1 45658U 20035B   23009.64587148 -.00003066  00000-0 -18723-3 0  9996
2 45658  53.0539 211.8137 0001473  72.4275 287.6875 15.06356643144641
1 45658U 20035B   23009.64587148 -.00003066  00000-0 -18723-3 0  9996
2 45658  53.0539 211.8137 0001473  72.4275 287.6875 15.06356643144236
1 45658U 20035B   23010.24297505  .00000605  00000-0  59556-4 0  9993
2 45658  53.0542 209.1339 0001362  60.7067 299.4058 15.06386923144328
1 45658U 20035B   23010.57471062  .00000493  00000-0  51962-4 0  9999
2 45658  53.0546 207.6453 0001101  57.3659 302.7436 15.06390520144788
1 45658U 20035B   23010.84009717  .00000872  00000-0  77410-4 0  9990
2 45658  53.0542 206.4532 0001300  59.0726 301.0391 15.06393034144824
1 45658U 20035B   23011.23819415  .00016662  00000-0  11368-2 0  9990
2 45658  53.0547 204.6660 0000149  40.2073 319.8927 15.06334725144473
1 45658U 20035B   23011.90164547  .00002739  00000-0  20268-3 0  9993
2 45658  53.0541 201.6875 0001371  57.2973 302.8149 15.06404875144985
1 45658U 20035B   23011.90164547  .00002739  00000-0  20268-3 0  9993
2 45658  53.0541 201.6875 0001371  57.2973 302.8149 15.06404875144570
1 45658U 20035B   23012.76417474 -.00001042  00000-0 -51087-4 0  9990
2 45658  53.0525 197.8158 0001426  64.1372 295.9764 15.06384979144705
1 45658U 20035B   23012.89686869 -.00000993  00000-0 -47779-4 0  9997
2 45658  53.0536 197.2201 0001408  63.7170 296.3963 15.06386083145133
1 45658U 20035B   23013.22859312 -.00002981  00000-0 -18130-3 0  9997
2 45658  53.0550 195.7299 0001361  60.2065 299.9059 15.06406710145182
1 45658U 20035B   23013.22859312 -.00002981  00000-0 -18130-3 0  9997
2 45658  53.0550 195.7299 0001361  60.2065 299.9059 15.06406710144776
1 45658U 20035B   23013.89206104  .00001580  00000-0  12497-3 0  9997
2 45658  53.0548 192.7519 0001366  62.9461 297.1668 15.06395811145281
1 45658U 20035B   23014.48917747  .00003512  00000-0  25454-3 0  9999
2 45658  53.0553 190.0707 0001312  64.5334 295.5790 15.06400354144966
1 45658U 20035B   23014.88725190  .00004302  00000-0  30744-3 0  9998
2 45658  53.0541 188.2850 0001389  60.0308 300.0819 15.06411531145028
1 45658U 20035B   23015.48437918  .00001596  00000-0  12599-3 0  9993
2 45658  53.0523 185.6039 0001483  62.3110 297.8029 15.06406833145114
1 45658U 20035B   23015.61707119  .00001628  00000-0  12814-3 0  9997
2 45658  53.0522 185.0083 0001495  62.1479 297.9662 15.06408035145542
1 45658U 20035B   23015.81610800  .00002560  00000-0  19060-3 0  9995
2 45658  53.0529 184.1142 0001493  65.0648 295.0496 15.06413579145579
1 45658U 20035B   23016.54592517 -.00000991  00000-0 -47661-4 0  9997
2 45658  53.0541 180.8377 0001459  75.8188 284.2963 15.06406467145685
1 45658U 20035B   23016.81130615 -.00000343  00000-0 -41312-5 0  9993
2 45658  53.0546 179.6472 0001416  70.9175 289.1967 15.06411711145728
1 45658U 20035B   23016.81130615 -.00000343  00000-0 -41312-5 0  9993
2 45658  53.0546 179.6472 0001416  70.9175 289.1967 15.06411711145313
1 45658U 20035B   23017.14304735 -.00001955  00000-0 -11236-3 0  9996
2 45658  53.0551 178.1588 0001330  68.6829 291.4302 15.06402146145362
1 45658U 20035B   23017.40844018 -.00001235  00000-0 -64066-4 0  9999
2 45658  53.0552 176.9675 0001277  68.8239 291.2886 15.06393186145811
1 45658U 20035B   23017.40844018 -.00001235  00000-0 -64066-4 0  9999
2 45658  53.0552 176.9675 0001277  68.8239 291.2886 15.06393186145406
1 45658U 20035B   23017.80651665 -.00000553  00000-0 -18252-4 0  9995
2 45658  53.0543 175.1795 0001322  75.0725 285.0410 15.06398886145878
1 45658U 20035B   23017.80651665 -.00000553  00000-0 -18252-4 0  9995
2 45658  53.0543 175.1795 0001322  75.0725 285.0410 15.06398886145463
1 45658U 20035B   23018.66902179  .00000779  00000-0  71182-4 0  9998
2 45658  53.0547 171.3068 0001328  79.6848 280.4291 15.06401583146006
1 45658U 20035B   23019.13346179 -.00002199  00000-0 -12886-3 0  9998
2 45658  53.0553 169.2228 0000963  90.9047 269.2052 15.06386155145666
1 45658U 20035B   23019.39885417 -.00000634  00000-0 -23674-4 0  9999
2 45658  53.0556 168.0319 0000955  99.4106 260.6991 15.06378367146112
1 45658U 20035B   23019.59788852  .00000663  00000-0  63424-4 0  9993
2 45658  53.0557 167.1396 0001468  88.8027 271.3131 15.06389588145731
1 45658U 20035B   23020.12865329  .00001210  00000-0  10012-3 0  9992
2 45658  53.0541 164.7559 0001159 116.8871 243.2237 15.06401900145811
1 45658U 20035B   23020.79211428  .00003714  00000-0  26797-3 0  9998
2 45658  53.0535 161.7766 0001135  91.9857 268.1262 15.06417835145911
1 45658U 20035B   23021.38925273  .00001121  00000-0  94132-4 0  9993
2 45658  53.0554 159.0963 0000625  64.8984 295.2069 15.06385220146003
1 45658U 20035B   23021.65463590  .00002821  00000-0  20823-3 0  9995
2 45658  53.0541 157.9058 0001233  81.6528 278.4601 15.06398983146047
1 45658U 20035B   23023.18061630  .00001454  00000-0  11652-3 0  9995
2 45658  53.0545 151.0577 0001585  73.2991 286.8172 15.06394821146271
1 45658U 20035B   23024.50755788  .00001301  00000-0  10620-3 0  9991
2 45658  53.0557 145.0996 0001229  71.1109 289.0013 15.06393254146475
1 45658U 20035B   23025.56910906  .00001023  00000-0  87570-4 0  9993
2 45658  53.0551 140.3331 0001202  82.3953 277.7172 15.06392548147041
1 45658U 20035B   23025.63545304  .00001581  00000-0  12500-3 0  9996
2 45658  53.0547 140.0351 0001326  80.4428 279.6711 15.06396227147057
1 45658U 20035B   23025.63545304  .00001581  00000-0  12500-3 0  9996
2 45658  53.0547 140.0351 0001326  80.4428 279.6711 15.06396227146641
1 45658U 20035B   23026.56430669  .00002024  00000-0  15477-3 0  9995
2 45658  53.0542 135.8676 0001555  68.7540 291.3615 15.06398827147199
1 45658U 20035B   23027.02873596 -.00000034  00000-0  16602-4 0  9999
2 45658  53.0549 133.7841 0001423  73.0336 287.0809 15.06399390146858
1 45658U 20035B   23027.55950903  .00000857  00000-0  76391-4 0  9998
2 45658  53.0550 131.3955 0001153 115.7674 244.3434 15.06396372147341
1 45658U 20035B   23028.48836765 -.00000365  00000-0 -56236-5 0  9993
2 45658  53.0543 127.2282 0001214  91.3695 268.7433 15.06397734147487
1 45658U 20035B   23028.48836765 -.00000365  00000-0 -56236-5 0  9993
2 45658  53.0543 127.2282 0001214  91.3695 268.7433 15.06397734147072
1 45658U 20035B   23028.68740372  .00000065  00000-0  23237-4 0  9992
2 45658  53.0547 126.3351 0001069  89.7411 270.3701 15.06402760147510
1 45658U 20035B   23029.28453623 -.00000024  00000-0  17280-4 0  9996
2 45658  53.0552 123.6540 0000951  94.6611 265.4487 15.06388079147198
1 45658U 20035B   23029.68261173  .00000232  00000-0  34452-4 0  9997
2 45658  53.0553 121.8669 0001028  89.9883 270.1224 15.06397636147668
1 45658U 20035B   23029.68261173  .00000232  00000-0  34452-4 0  9997
2 45658  53.0553 121.8669 0001028  89.9883 270.1224 15.06397636147253
1 45658U 20035B   23030.61146821  .00000729  00000-0  67813-4 0  9992
2 45658  53.0554 117.6975 0001029  94.8917 265.2190 15.06399040147800
1 45658U 20035B   23031.27494123  .00000663  00000-0  63423-4 0  9996
2 45658  53.0565 114.7203 0001192 101.6875 258.4248 15.06394280147499
1 45658U 20035B   23031.47397888  .00000770  00000-0  70590-4 0  9990
2 45658  53.0563 113.8263 0001211 103.2771 256.8353 15.06398486147938
1 45658U 20035B   23031.60667002  .00000913  00000-0  80146-4 0  9990
2 45658  53.0552 113.2296 0001034  93.8624 266.2483 15.06401683147955
1 45658U 20035B   23031.60667002  .00000913  00000-0  80146-4 0  9990
2 45658  53.0552 113.2296 0001034  93.8624 266.2483 15.06401683147540
